{
  "type": "FeatureCollection",
  "features": [
    {
      "type": "Feature",
      "properties": {
        "norad_id": 66561,
        "name": "STARLINK-35305",
        "group": "last-30-days",
        "lat": 5.510206186123648,
        "lon": -92.33450914663241,
        "alt_km": 414.1117318527986,
        "timestamp": "2025-12-17T10:52:53.099307+00:00",
        "meta_object_name": "STARLINK-35305",
        "meta_object_id": "2025-268E",
        "meta_epoch": "2025-12-16T14:02:49.165728",
        "meta_mean_motion": 15.50574433,
        "meta_eccentricity": 0.00021576,
        "meta_inclination": 43.0016,
        "meta_ra_of_asc_node": 98.6865,
        "meta_arg_of_pericenter": 270.5914,
        "meta_mean_anomaly": 89.4699,
        "meta_ephemeris_type": 0,
        "meta_classification_type": "U",
        "meta_norad_cat_id": 66561,
        "meta_element_set_no": 999,
        "meta_rev_at_epoch": 522,
        "meta_bstar": 0.0010950416,
        "meta_mean_motion_dot": 0.00064421,
        "meta_mean_motion_ddot": 0,
        "tle_line1": "1 66561U 25268E   25350.58529127  .00064421  00000+0  10950-2 0  9994",
        "tle_line2": "2 66561  43.0016  98.6865 0002157 270.5914  89.4699 15.50574433  5226"
      },
      "geometry": {
        "type": "Point",
        "coordinates": [
          -92.33450914663241,
          5.510206186123648
        ]
      }
    },
    {
      "type": "Feature",
      "properties": {
        "norad_id": 66562,
        "name": "STARLINK-35579",
        "group": "last-30-days",
        "lat": 6.635024067380621,
        "lon": -93.55890772161828,
        "alt_km": 413.6978099620883,
        "timestamp": "2025-12-17T10:52:53.099317+00:00",
        "meta_object_name": "STARLINK-35579",
        "meta_object_id": "2025-268F",
        "meta_epoch": "2025-12-16T14:03:18.669600",
        "meta_mean_motion": 15.50651892,
        "meta_eccentricity": 0.00012368,
        "meta_inclination": 43.0017,
        "meta_ra_of_asc_node": 98.6894,
        "meta_arg_of_pericenter": 276.1829,
        "meta_mean_anomaly": 83.8891,
        "meta_ephemeris_type": 0,
        "meta_classification_type": "U",
        "meta_norad_cat_id": 66562,
        "meta_element_set_no": 999,
        "meta_rev_at_epoch": 522,
        "meta_bstar": 0.00099428534,
        "meta_mean_motion_dot": 0.00058578,
        "meta_mean_motion_ddot": 0,
        "tle_line1": "1 66562U 25268F   25350.58563275  .00058578  00000+0  99429-3 0  9992",
        "tle_line2": "2 66562  43.0017  98.6894 0001236 276.1829  83.8891 15.50651892  5221"
      },
      "geometry": {
        "type": "Point",
        "coordinates": [
          -93.55890772161828,
          6.635024067380621
        ]
      }
    },
    {
      "type": "Feature",
      "properties": {
        "norad_id": 66563,
        "name": "STARLINK-35437",
        "group": "last-30-days",
        "lat": 4.126129897014124,
        "lon": -90.8383975230804,
        "alt_km": 414.1600132452504,
        "timestamp": "2025-12-17T10:52:53.099353+00:00",
        "meta_object_name": "STARLINK-35437",
        "meta_object_id": "2025-268G",
        "meta_epoch": "2025-12-16T14:02:18.360672",
        "meta_mean_motion": 15.50586843,
        "meta_eccentricity": 0.0002788,
        "meta_inclination": 43.002,
        "meta_ra_of_asc_node": 98.6827,
        "meta_arg_of_pericenter": 267.1321,
        "meta_mean_anomaly": 92.922,
        "meta_ephemeris_type": 0,
        "meta_classification_type": "U",
        "meta_norad_cat_id": 66563,
        "meta_element_set_no": 999,
        "meta_rev_at_epoch": 522,
        "meta_bstar": 0.0012272326,
        "meta_mean_motion_dot": 0.00072348,
        "meta_mean_motion_ddot": 0,
        "tle_line1": "1 66563U 25268G   25350.58493473  .00072348  00000+0  12272-2 0  9996",
        "tle_line2": "2 66563  43.0020  98.6827 0002788 267.1321  92.9220 15.50586843  5222"
      },
      "geometry": {
        "type": "Point",
        "coordinates": [
          -90.8383975230804,
          4.126129897014124
        ]
      }
    },
    {
      "type": "Feature",
      "properties": {
        "norad_id": 66564,
        "name": "STARLINK-35358",
        "group": "last-30-days",
        "lat": 2.848050650143053,
        "lon": -89.4640397232261,
        "alt_km": 414.5506013064178,
        "timestamp": "2025-12-17T10:52:53.099366+00:00",
        "meta_object_name": "STARLINK-35358",
        "meta_object_id": "2025-268H",
        "meta_epoch": "2025-12-16T14:01:49.179936",
        "meta_mean_motion": 15.50594418,
        "meta_eccentricity": 0.00027116,
        "meta_inclination": 43.001,
        "meta_ra_of_asc_node": 98.6796,
        "meta_arg_of_pericenter": 274.7611,
        "meta_mean_anomaly": 85.2939,
        "meta_ephemeris_type": 0,
        "meta_classification_type": "U",
        "meta_norad_cat_id": 66564,
        "meta_element_set_no": 999,
        "meta_rev_at_epoch": 522,
        "meta_bstar": 0.0010025673,
        "meta_mean_motion_dot": 0.00058955,
        "meta_mean_motion_ddot": 0,
        "tle_line1": "1 66564U 25268H   25350.58459699  .00058955  00000+0  10026-2 0  9992",
        "tle_line2": "2 66564  43.0010  98.6796 0002711 274.7611  85.2939 15.50594418  5228"
      },
      "geometry": {
        "type": "Point",
        "coordinates": [
          -89.4640397232261,
          2.848050650143053
        ]
      }
    },
    {
      "type": "Feature",
      "properties": {
        "norad_id": 66565,
        "name": "STARLINK-35893",
        "group": "last-30-days",
        "lat": 1.5033963509733688,
        "lon": -88.02230927115856,
        "alt_km": 414.5588745558589,
        "timestamp": "2025-12-17T10:52:53.099377+00:00",
        "meta_object_name": "STARLINK-35893",
        "meta_object_id": "2025-268J",
        "meta_epoch": "2025-12-16T14:01:19.435008",
        "meta_mean_motion": 15.50602866,
        "meta_eccentricity": 0.00028488,
        "meta_inclination": 43.0027,
        "meta_ra_of_asc_node": 98.6769,
        "meta_arg_of_pericenter": 273.0257,
        "meta_mean_anomaly": 87.0278,
        "meta_ephemeris_type": 0,
        "meta_classification_type": "U",
        "meta_norad_cat_id": 66565,
        "meta_element_set_no": 999,
        "meta_rev_at_epoch": 522,
        "meta_bstar": 0.0011705627,
        "meta_mean_motion_dot": 0.00069002,
        "meta_mean_motion_ddot": 0,
        "tle_line1": "1 66565U 25268J   25350.58425272  .00069002  00000+0  11706-2 0  9994",
        "tle_line2": "2 66565  43.0027  98.6769 0002848 273.0257  87.0278 15.50602866  5229"
      },
      "geometry": {
        "type": "Point",
        "coordinates": [
          -88.02230927115856,
          1.5033963509733688
        ]
      }
    },
    {
      "type": "Feature",
      "properties": {
        "norad_id": 66566,
        "name": "STARLINK-35871",
        "group": "last-30-days",
        "lat": 0.1186617509709734,
        "lon": -86.54070053310923,
        "alt_km": 414.3491396856816,
        "timestamp": "2025-12-17T10:52:53.099388+00:00",
        "meta_object_name": "STARLINK-35871",
        "meta_object_id": "2025-268K",
        "meta_epoch": "2025-12-16T14:00:49.849056",
        "meta_mean_motion": 15.50598861,
        "meta_eccentricity": 0.00016367,
        "meta_inclination": 43.0013,
        "meta_ra_of_asc_node": 98.6744,
        "meta_arg_of_pericenter": 272.208,
        "meta_mean_anomaly": 87.8592,
        "meta_ephemeris_type": 0,
        "meta_classification_type": "U",
        "meta_norad_cat_id": 66566,
        "meta_element_set_no": 999,
        "meta_rev_at_epoch": 522,
        "meta_bstar": 0.0018059727,
        "meta_mean_motion_dot": 0.00107144,
        "meta_mean_motion_ddot": 0,
        "tle_line1": "1 66566U 25268K   25350.58391029  .00107144  00000+0  18060-2 0  9997",
        "tle_line2": "2 66566  43.0013  98.6744 0001636 272.2080  87.8592 15.50598861  5223"
      },
      "geometry": {
        "type": "Point",
        "coordinates": [
          -86.54070053310923,
          0.1186617509709734
        ]
      }
    },
    {
      "type": "Feature",
      "properties": {
        "norad_id": 66567,
        "name": "STARLINK-35825",
        "group": "last-30-days",
        "lat": -1.3522642305365566,
        "lon": -84.9667515793036,
        "alt_km": 414.06648990191024,
        "timestamp": "2025-12-17T10:52:53.099399+00:00",
        "meta_object_name": "STARLINK-35825",
        "meta_object_id": "2025-268L",
        "meta_epoch": "2025-12-16T14:00:20.188800",
        "meta_mean_motion": 15.50672889,
        "meta_eccentricity": 0.00016137,
        "meta_inclination": 43.0007,
        "meta_ra_of_asc_node": 98.6721,
        "meta_arg_of_pericenter": 261.1779,
        "meta_mean_anomaly": 98.8899,
        "meta_ephemeris_type": 0,
        "meta_classification_type": "U",
        "meta_norad_cat_id": 66567,
        "meta_element_set_no": 999,
        "meta_rev_at_epoch": 522,
        "meta_bstar": 0.0018347467,
        "meta_mean_motion_dot": 0.00109173,
        "meta_mean_motion_ddot": 0,
        "tle_line1": "1 66567U 25268L   25350.58356700  .00109173  00000+0  18347-2 0  9997",
        "tle_line2": "2 66567  43.0007  98.6721 0001613 261.1779  98.8899 15.50672889  5224"
      },
      "geometry": {
        "type": "Point",
        "coordinates": [
          -84.9667515793036,
          -1.3522642305365566
        ]
      }
    }
  ]
}